IRIDIUM 171             
1 43929U 19002H   24149.14976014  .00000303  00000+0  10128-3 0  9991
2 43929  86.3949 307.2480 0002275  96.9418 263.2037 14.34217322281457
IRIDIUM 170             
1 43930U 19002J   24149.14153735  .00001514  00000+0  23605-3 0  9999
2 43930  86.6069 307.0743 0002347  87.0765 273.0721 14.72264867288905
IRIDIUM 167             
1 43931U 19002K   24149.49225743  .00000116  00000+0  34484-4 0  9992
2 43931  86.3940 306.8969 0002100  92.0099 268.1337 14.34217287281500
IRIDIUM 181             
1 56726U 23068S   24149.55987535  .00000422  00000+0  11891-3 0  9992
2 56726  86.8646 359.6468 0002107  92.7385 267.4058 14.43582339 54307
IRIDIUM 177             
1 56727U 23068T   24148.94470849  .00000703  00000+0  89066-4 0  9992
2 56727  86.1955 324.9762 0002317  97.6562 262.4922 14.80206480 55385
IRIDIUM 174             
1 56728U 23068U   24149.54769780  .00000089  00000+0  82199-5 0  9993
2 56728  86.1961 324.7919 0001864  84.0389 276.1045 14.80208113 55471
IRIDIUM 178             
1 56729U 23068V   24149.06905308  .00000571  00000+0  71711-4 0  9992
2 56729  86.5775 341.5310 0002198  78.7857 281.3611 14.80201169 55406
IRIDIUM 179             
1 56730U 23068W   24148.92837337  .00001599  00000+0  20685-3 0  9998
2 56730  86.6791 345.4696 0002377  74.5823 285.5661 14.80263742 55386
